P/2020 B4 (Sheppard),e,11.6091,185.9788,342.0614,7.966658,0.0438318,0.19183679,25.9858,07/05.0/2023,2000,g 10.5,4.0
# From MPEC 2023-N01
C/2020 F2 (ATLAS),h,07/14.7871/2022,163.5885,250.2916,48.3245,1.005337,8.816501,2000,4.5,4.0
# From MPEC 2021-O56
C/2020 F3 (NEOWISE),e,129.1258,61.0814,37.3684,361.0894,0.0001436,0.99918095,0.0000,07/03.7630/2020,2000,g  7.5,5.2
# From MPEC 2023-C45
C/2020 F5 (MASTER),e,52.2058,350.4999,310.6803,176.2676,0.0004212,0.97546471,0.0000,03/17.4899/2021,2000,g  6.5,3.2
# From MPEC 2020-L06
C/2020 F6 (PANSTARRS),e,174.5830,207.9072,344.5404,398.1967,0.0001240,0.99119795,0.0000,04/11.6814/2020,2000,g 14.5,2.8
# From MPEC 2023-J95
C/2020 F7 (Lemmon),e,93.9515,321.8682,227.9496,577.8126,0.0000710,0.99077181,0.0000,11/13.7184/2021,2000,g  7.0,4.0
# From MPEC 2023-J29
C/2020 F8 (SWAN),h,05/27.2567/2020,110.6311,259.8879,68.0868,1.000195,0.429498,2000,10.0,4.0
# From MPEC 2020-L06
P/2020 G1 (Pimentel),e,18.5120,240.1294,207.5914,3.608259,0.1437995,0.86042275,173.1807,07/05.0/2023,2000,g 17.0,4.0
# From MPEC 2022-YB4
C/2020 H2 (Pruyne),e,124.9028,277.6661,26.6629,189.1517,0.0003789,0.99560610,0.0000,04/27.8208/2020,2000,g 14.0,3.2
# From MPEC 2020-HM1
C/2020 H3 (Wierzchos),p,06/05.7162/2020,62.5292,30.4456,2.300288,270.6227,2000,13.5,4.0
# From MPEC 2020-L06
C/2020 H4 (Leonard),e,84.4959,307.6361,117.5424,47.84426,0.0029782,0.98067741,0.0000,08/29.6443/2020,2000,g 15.0,3.2
# From MPEC 2023-N01
C/2020 H5 (Robinson),e,70.2557,210.6276,326.3339,3948,0.0000040,0.99763379,0.0000,12/10.7103/2020,2000,g  5.0,4.0
# From MPEC 2023-N01
C/2020 H6 (ATLAS),e,79.9778,213.7200,20.2985,7619,0.0000015,0.99938289,0.0000,09/30.6404/2021,2000,g  8.0,3.2
# From MPEC 2020-KB7
C/2020 H7 (Lemmon),e,135.9235,323.5194,82.6780,1405,0.0000187,0.99685380,0.0000,06/02.9510/2020,2000,g 11.0,4.0
# From MPEC 2021-N06
C/2020 H8 (PANSTARRS),e,99.6913,68.4290,128.9344,598.1055,0.0000674,0.99218447,0.0000,06/04.5151/2020,2000,g 10.5,4.0
# From MPEC 2022-ED3
A/2020 H9,e,137.8792,213.1827,312.8257,370.3977,0.0001383,0.99305287,0.0000,12/21.6794/2019,2000,g 18.0,2.0
# From MPEC 2023-HN7
C/2020 H11 (PANSTARRS-Lemmon),h,09/15.0831/2020,151.4002,303.0359,91.4685,1.002193,7.627220,2000,8.5,4.0
# From MPEC 2023-KD6
C/2020 J1 (SONEAR),h,04/18.6246/2021,142.3055,226.6061,341.7374,1.000752,3.352921,2000,8.5,3.2
# From MPEC 2023-N01
C/2020 K1 (PANSTARRS),e,89.6715,94.3561,213.9854,84562,0.0000000,0.99996366,0.0000,05/09.0882/2023,2000,g  5.5,4.0
# From MPEC 2021-N06
C/2020 K2 (PANSTARRS),h,08/06.3560/2020,91.0258,288.3981,67.3516,1.003852,8.879979,2000,10.8,4.0
# From MPEC 2020-KF9
C/2020 K3 (Leonard),p,06/01.0032/2020,129.0152,64.4924,1.583069,28.3546,2000,14.5,4.0
# From MPEC 2020-L06
C/2020 K4 (PANSTARRS),e,125.5836,264.2039,308.8642,23.96615,0.0084005,0.92683788,10.2318,07/05.0/2023,2000,g 16.5,4.0
# From MPEC 2021-R75
C/2020 K5 (PANSTARRS),h,06/05.4307/2021,67.1108,86.1605,249.6139,1.001346,1.536931,2000,11.0,4.0
# From MPEC 2023-N01
C/2020 K6 (Rankin),h,09/15.8328/2021,103.6492,291.5570,44.3375,1.003662,5.868861,2000,8.0,4.0
# From MPEC 2023-A50
C/2020 K7 (PANSTARRS),e,32.0423,286.0832,358.2508,98.35409,0.0010105,0.93499005,1.3601,07/05.0/2023,2000,g  8.0,4.0
# From MPEC 2021-P47
C/2020 K8 (Catalina-ATLAS),h,09/14.8977/2020,31.4239,181.5304,259.9594,1.000191,0.471764,2000,15.0,3.2
# From MPEC 2021-BE3
P/2020 K9 (Lemmon-PANSTARRS),e,23.2075,166.2449,197.0732,4.203195,0.1143759,0.32122360,99.8026,07/05.0/2023,2000,g 12.5,4.0
# From MPEC 2023-C45
P/2020 M1 (PANSTARRS),e,8.5361,142.6192,72.6539,5.317120,0.0803877,0.47351267,103.4945,07/05.0/2023,2000,g 14.5,4.0
# From MPEC 2022-H30
C/2020 M3 (ATLAS),e,23.4781,71.1522,328.5724,27.11749,0.0069796,0.95321610,6.8546,07/05.0/2023,2000,g 14.5,4.0
# From MPEC 2023-N01
A/2020 M4,h,11/24.1520/2020,160.1245,348.6232,104.6299,1.001065,5.950368,2000,14.5,2.0
# From MPC xxxxx
P/2020 MK4 (PANSTARRS),e,6.7962,0.7147,100.5660,6.207839,0.0637226,0.01207339,264.7697,07/05.0/2023,2000,g  8.0,4.0
# From MPEC 2023-FK0
C/2020 M5 (ATLAS),h,08/19.8574/2021,93.2175,352.0884,126.2989,1.000387,3.002541,2000,9.0,4.0
# From MPEC 2022-GA9
C/2020 N1 (PANSTARRS),h,03/12.3834/2021,29.7294,279.9205,186.7622,1.000480,1.318313,2000,12.5,4.0
# From MPEC 2021-P47
C/2020 N2 (ATLAS),e,161.0333,257.1666,331.3152,104.5964,0.0009214,0.98286506,0.0000,08/24.1389/2020,2000,g 16.0,3.2
# From MPEC 2023-N01
C/2020 O2 (Amaral),h,08/28.4722/2021,71.7609,256.7753,10.2999,1.001483,4.862351,2000,8.0,3.2
# From MPEC 2023-C45
P/2020 O3 (PANSTARRS),e,8.4445,266.8185,81.6128,4.647482,0.0983734,0.10304586,87.1679,07/05.0/2023,2000,g 12.0,4.0
# From MPEC 2021-BE3
C/2020 P1 (NEOWISE),h,10/20.4787/2020,45.1832,53.4831,8.8916,1.000325,0.340933,2000,14.0,3.2
# From MPEC 2023-N01
C/2020 P3 (ATLAS),h,04/21.4562/2021,61.8892,19.4657,82.2795,1.001657,6.812633,2000,6.0,4.0
# From MPEC 2022-PB4
C/2020 PV6 (PANSTARRS),e,128.2234,329.1490,71.3806,42.06889,0.0036121,0.94545096,2.3367,07/05.0/2023,2000,g 10.0,4.0
# From MPEC 2022-L66
C/2020 Q1 (Borisov),e,142.9457,52.3857,9.9632,60.98404,0.0020696,0.97838228,0.0000,08/14.4149/2020,2000,g 14.0,4.0
# From MPEC 2023-CD7
C/2020 Q2 (PANSTARRS),e,3.3362,179.8280,118.2684,10.64158,0.0283919,0.49167669,35.5623,07/05.0/2023,2000,g 12.0,3.2
# From MPEC 2022-X67
C/2020 R2 (PANSTARRS),e,53.2282,195.0934,211.8007,411.4384,0.0001181,0.98859340,0.0000,02/24.9481/2022,2000,g  9.0,4.0
# From MPEC 2022-K19
C/2020 R4 (ATLAS),e,164.4492,323.2712,46.6783,99.78832,0.0009887,0.98971259,0.0000,03/02.2040/2021,2000,g 13.5,4.0
# From MPEC 2023-C45
P/2020 R5 (PANSTARRS),e,11.4443,272.9665,82.6394,4.987950,0.0884751,0.31441989,100.1119,07/05.0/2023,2000,g  9.5,6.0
# From MPEC 2021-Y10
C/2020 R6 (Rankin),e,82.8137,12.1790,271.9923,312.2440,0.0001786,0.98996139,0.0000,09/08.3806/2019,2000,g 11.0,4.0
# From MPEC 2023-N01
C/2020 R7 (ATLAS),h,09/16.2521/2022,114.8974,268.2857,347.8417,1.000248,2.955973,2000,7.0,3.2
# From MPEC 2021-BE3
P/2020 S1 (PANSTARRS),e,13.7271,129.4612,255.0436,5.993896,0.0671646,0.50772573,60.3419,07/05.0/2023,2000,g 14.0,4.0
# From MPEC 2022-ST7
C/2020 S2 (PANSTARRS),e,22.4044,197.6625,202.3523,10.22540,0.0301428,0.82815408,27.8752,07/05.0/2023,2000,g 17.0,4.0
# From MPEC 2022-C56
C/2020 S3 (Erasmus),e,20.0182,222.5964,350.0914,150.9051,0.0005317,0.99737515,0.0000,12/11.9524/2020,2000,g 13.5,3.2
# From MPEC 2023-N01
C/2020 S4 (PANSTARRS),h,02/09.2383/2023,20.5686,117.7191,20.9925,1.001403,3.369750,2000,8.5,3.2
# From MPEC 2021-BE3
P/2020 S5 (PANSTARRS),e,12.3463,315.9973,53.2390,4.054671,0.1207176,0.33842070,127.9457,07/05.0/2023,2000,g 14.5,4.0
# From MPEC 2021-BE3
P/2020 S7 (PANSTARRS),e,16.0860,328.0300,40.6023,5.031288,0.0873344,0.41062745,83.6865,07/05.0/2023,2000,g 14.5,4.0
# From MPEC 2021-P47
C/2020 S8 (Lemmon),e,108.5274,24.0685,160.2653,261.0324,0.0002337,0.99095502,0.0000,04/10.8047/2021,2000,g 12.5,4.0
# From MPEC 2022-ST7
C/2020 T2 (Palomar),e,27.8550,82.9653,150.5191,301.4028,0.0001884,0.99317367,0.0000,07/10.9501/2021,2000,g 11.0,3.2
# From MPEC 2021-N06
P/2020 T3 (PANSTARRS),e,7.2995,73.9873,357.0421,3.516908,0.1494385,0.59215976,133.7665,07/05.0/2023,2000,g 18.0,3.2
# From MPEC 2021-N06
C/2020 T4 (PANSTARRS),h,07/05.3655/2021,83.8434,50.6157,79.6052,1.000290,2.191226,2000,13.0,3.2
# From MPEC 2021-BE3
C/2020 T5 (Lemmon),e,66.5561,237.8388,90.3400,734.6285,0.0000495,0.99742490,0.0000,10/09.2524/2020,2000,g 16.0,4.0
# From MPEC 2021-N06
P/2020 U2 (PANSTARRS),e,6.4192,342.8793,84.6536,3.778021,0.1342170,0.51117913,123.5957,07/05.0/2023,2000,g 18.0,4.0
# From MPEC 2021-W31
C/2020 U3 (Rankin),e,30.1553,282.6338,124.3581,66.64605,0.0018115,0.96582759,1.5919,07/05.0/2023,2000,g 15.0,4.0
# From MPEC 2023-CD7
C/2020 U4 (PANSTARRS),h,04/09.3549/2022,167.0202,120.3379,70.0299,1.000904,5.358081,2000,7.0,4.0
# From MPEC 2023-N01
C/2020 U5 (PANSTARRS),e,97.2750,107.3252,75.4362,3718,0.0000043,0.99898963,0.0000,04/27.9683/2022,2000,g  8.0,4.0
# From MPEC 2023-N01
C/2020 V2 (ZTF),h,05/08.5431/2023,131.6122,212.3714,162.4201,1.001310,2.227803,2000,4.9,4.0
# From MPEC 2023-D72
P/2020 V3 (PANSTARRS),e,23.0330,198.2522,249.3916,8.387284,0.0405763,0.25707045,35.5170,07/05.0/2023,2000,g  8.3,4.0
# From MPEC 2023-KD6
P/2020 V4 (Rankin),e,14.2444,203.4827,257.0444,9.370648,0.0343597,0.45056742,24.6226,07/05.0/2023,2000,g  9.0,4.0
# From MPEC 2021-BE3
P/2020 W1 (Rankin),e,10.7862,124.2726,265.1871,7.215854,0.0508478,0.26633043,60.1060,07/05.0/2023,2000,g 10.0,4.0
# From MPEC 2021-BE3
C/2020 W5 (Lemmon),h,11/30.1342/2020,88.5997,75.4650,24.5064,1.000845,3.365631,2000,15.0,4.0
# From MPEC 2023-N01
P/2020 WJ5 (Lemmon),e,22.2929,177.8079,338.1498,6.015698,0.0667998,0.17138692,49.0533,07/05.0/2023,2000,g  8.5,4.0
# From MPEC 2021-P47
P/2020 X1 (ATLAS),e,31.6933,55.9879,323.4488,4.531277,0.1021817,0.36541917,110.2638,07/05.0/2023,2000,g 13.0,4.0
# From MPEC 2021-U31
C/2020 X2 (ATLAS),e,18.1848,105.4148,347.3834,16.46023,0.0147588,0.76749419,14.1808,07/05.0/2023,2000,g 10.6,4.0
# From MPEC 2021-S45
C/2020 X4 (Leonard),e,80.6086,161.8839,140.3087,40.64932,0.0038030,0.87151884,3.6552,07/05.0/2023,2000,g  9.0,4.0
# From MPEC 2023-N01
C/2020 Y2 (ATLAS),e,101.3006,26.5126,266.2047,1624,0.0000151,0.99806923,0.0000,06/18.0950/2022,2000,g  6.5,4.0
# From MPEC 2021-R75
C/2020 Y3 (ATLAS),e,83.1018,191.4386,341.9424,142.0907,0.0005819,0.98595407,0.0000,12/03.3041/2020,2000,g 13.5,4.0
# From MPEC 2023-CD7
C/2021 A1 (Leonard),h,01/03.2880/2022,132.7165,255.8998,225.1175,1.000029,0.615831,2000,8.5,4.0
# From MPEC 2022-F14
C/2021 A2 (NEOWISE),e,106.9906,125.1892,338.7794,232.0451,0.0002788,0.99391463,0.0000,01/22.3948/2021,2000,g 13.5,4.0
# From MPEC 2022-ED3
C/2021 A4 (NEOWISE),e,111.5384,307.1112,204.7107,42.43877,0.0035650,0.97295932,0.0000,03/19.7150/2021,2000,g 16.0,4.0
# From MPEC 2021-BE3
P/2021 A5 (PANSTARRS),e,18.1830,328.7589,61.3625,3.047697,0.1852449,0.13991285,178.6159,07/05.0/2023,2000,g 15.0,4.0
# From MPEC 2023-M14
